STARLINK-1816           
1 46714U 20073AW  25226.33077709  .00001968  00000+0  15090-3 0  9998
2 46714  53.0536  92.4894 0001580  78.4051 281.7115 15.06418335265870
STARLINK-1817           
1 46715U 20073AX  25226.32708928  .00004160  00000+0  29785-3 0  9995
2 46715  53.0533  92.5071 0001171  71.8413 288.2703 15.06422664265876
STARLINK-1820           
1 46717U 20073AZ  25226.29871586  .00059168  00000+0  22470-2 0  9995
2 46717  53.0603  77.5021 0003189  33.0547 327.0649 15.26277898266087
STARLINK-1821           
1 46718U 20073BA  25226.07434496  .00011249  00000+0  59879-3 0  9999
2 46718  53.0530 106.0543 0004085 124.5168 235.6212 15.15696689265669
STARLINK-1822           
1 46719U 20073BB  25226.58335648  .00515196  00000+0  16007-2 0  9990
2 46719  53.0427  28.8827 0002626 244.2259  47.3248 15.89821137  5838
STARLINK-1826           
1 46723U 20073BF  25225.97369830  .00002642  00000+0  19611-3 0  9999
2 46723  53.0546  69.0902 0001355  98.5092 261.6051 15.06411118266171
STARLINK-1828           
1 46725U 20073BH  25226.37545706  .00014703  00000+0  10025-2 0  9994
2 46725  53.0536 107.2847 0001433  97.2301 262.8851 15.06451934265676
STARLINK-1830           
1 46727U 20073BK  25225.95897426  .00007902  00000+0  54883-3 0  9992
2 46727  53.0537  69.1591 0001424  90.8405 269.2747 15.06397014266174
STARLINK-1848           
1 46740U 20074B   25226.50001157  .00043250  00000+0  25007-2 0  9999
2 46740  53.0529 176.6978 0001246 119.1264 169.0694 15.11877869  5821
STARLINK-1892           
1 46743U 20074E   25226.26075838  .00000102  00000+0  25757-4 0  9995
2 46743  53.0543 172.8060 0001593  88.4501 271.6670 15.06392382265410
STARLINK-1894           
1 46744U 20074F   25226.57040352  .00000427  00000+0  47588-4 0  9999
2 46744  53.0552 171.6849 0001462  88.1494 271.9663 15.06395260265453
STARLINK-1905           
1 46746U 20074H   25226.55930285  .00001894  00000+0  14599-3 0  9996
2 46746  53.0535 171.4619 0001877  84.0936 276.0267 15.06403865265452
STARLINK-1911           
1 46749U 20074L   25226.55561956  .00001436  00000+0  11527-3 0  9994
2 46749  53.0531 171.4791 0001140  88.4383 271.6737 15.06411393265457
STARLINK-1922           
1 46753U 20074Q   25226.13173400  .00002243  00000+0  16941-3 0  9998
2 46753  53.0542 173.3854 0001564  87.3864 272.7304 15.06404912265391
STARLINK-1928           
1 46758U 20074V   25226.59018600  .00000681  00000+0  64594-4 0  9995
2 46758  53.0545 176.3262 0001571  92.9480 267.1689 15.06391395265393
STARLINK-1903           
1 46764U 20074AB  25226.44039678  .00076800  00000+0  88518-3 0  9991
2 46764  53.0246 121.2777 0001595  67.9907 292.1274 15.61297421266159
STARLINK-1832           
1 46780U 20074AT  25226.23218243  .00001512  00000+0  12035-3 0  9992
2 46780  53.0531 162.9361 0001558  83.6877 276.4290 15.06404621265541
