[{"OBJECT_NAME":"STARLINK-1816","OBJECT_ID":"2020-073AW","EPOCH":"2025-08-14T07:56:19.140576","MEAN_MOTION":15.06418335,"ECCENTRICITY":0.000158,"INCLINATION":53.0536,"RA_OF_ASC_NODE":92.4894,"ARG_OF_PERICENTER":78.4051,"MEAN_ANOMALY":281.7115,"EPHEMERIS_TYPE":0,"CLASSIFICATION_TYPE":"U","NORAD_CAT_ID":46714,"ELEMENT_SET_NO":999,"REV_AT_EPOCH":26587,"BSTAR":0.0001509,"MEAN_MOTION_DOT":1.968e-5,"MEAN_MOTION_DDOT":0},{"OBJECT_NAME":"STARLINK-1817","OBJECT_ID":"2020-073AX","EPOCH":"2025-08-14T07:51:00.513792","MEAN_MOTION":15.06422664,"ECCENTRICITY":0.0001171,"INCLINATION":53.0533,"RA_OF_ASC_NODE":92.5071,"ARG_OF_PERICENTER":71.8413,"MEAN_ANOMALY":288.2703,"EPHEMERIS_TYPE":0,"CLASSIFICATION_TYPE":"U","NORAD_CAT_ID":46715,"ELEMENT_SET_NO":999,"REV_AT_EPOCH":26587,"BSTAR":0.00029785,"MEAN_MOTION_DOT":4.16e-5,"MEAN_MOTION_DDOT":0},{"OBJECT_NAME":"STARLINK-1820","OBJECT_ID":"2020-073AZ","EPOCH":"2025-08-14T07:10:09.050304","MEAN_MOTION":15.26277898,"ECCENTRICITY":0.0003189,"INCLINATION":53.0603,"RA_OF_ASC_NODE":77.5021,"ARG_OF_PERICENTER":33.0547,"MEAN_ANOMALY":327.0649,"EPHEMERIS_TYPE":0,"CLASSIFICATION_TYPE":"U","NORAD_CAT_ID":46717,"ELEMENT_SET_NO":999,"REV_AT_EPOCH":26608,"BSTAR":0.002247,"MEAN_MOTION_DOT":0.00059168,"MEAN_MOTION_DDOT":0},{"OBJECT_NAME":"STARLINK-1821","OBJECT_ID":"2020-073BA","EPOCH":"2025-08-14T01:47:03.404544","MEAN_MOTION":15.15696689,"ECCENTRICITY":0.0004085,"INCLINATION":53.053,"RA_OF_ASC_NODE":106.0543,"ARG_OF_PERICENTER":124.5168,"MEAN_ANOMALY":235.6212,"EPHEMERIS_TYPE":0,"CLASSIFICATION_TYPE":"U","NORAD_CAT_ID":46718,"ELEMENT_SET_NO":999,"REV_AT_EPOCH":26566,"BSTAR":0.00059879,"MEAN_MOTION_DOT":0.00011249,"MEAN_MOTION_DDOT":0},{"OBJECT_NAME":"STARLINK-1822","OBJECT_ID":"2020-073BB","EPOCH":"2025-08-14T14:00:01.999872","MEAN_MOTION":15.89821137,"ECCENTRICITY":0.0002626,"INCLINATION":53.0427,"RA_OF_ASC_NODE":28.8827,"ARG_OF_PERICENTER":244.2259,"MEAN_ANOMALY":47.3248,"EPHEMERIS_TYPE":0,"CLASSIFICATION_TYPE":"U","NORAD_CAT_ID":46719,"ELEMENT_SET_NO":999,"REV_AT_EPOCH":583,"BSTAR":0.0016007,"MEAN_MOTION_DOT":0.00515196,"MEAN_MOTION_DDOT":0},{"OBJECT_NAME":"STARLINK-1826","OBJECT_ID":"2020-073BF","EPOCH":"2025-08-13T23:22:07.533120","MEAN_MOTION":15.06411118,"ECCENTRICITY":0.0001355,"INCLINATION":53.0546,"RA_OF_ASC_NODE":69.0902,"ARG_OF_PERICENTER":98.5092,"MEAN_ANOMALY":261.6051,"EPHEMERIS_TYPE":0,"CLASSIFICATION_TYPE":"U","NORAD_CAT_ID":46723,"ELEMENT_SET_NO":999,"REV_AT_EPOCH":26617,"BSTAR":0.00019611,"MEAN_MOTION_DOT":2.642e-5,"MEAN_MOTION_DDOT":0},{"OBJECT_NAME":"STARLINK-1828","OBJECT_ID":"2020-073BH","EPOCH":"2025-08-14T09:00:39.489984","MEAN_MOTION":15.06451934,"ECCENTRICITY":0.0001433,"INCLINATION":53.0536,"RA_OF_ASC_NODE":107.2847,"ARG_OF_PERICENTER":97.2301,"MEAN_ANOMALY":262.8851,"EPHEMERIS_TYPE":0,"CLASSIFICATION_TYPE":"U","NORAD_CAT_ID":46725,"ELEMENT_SET_NO":999,"REV_AT_EPOCH":26567,"BSTAR":0.0010025,"MEAN_MOTION_DOT":0.00014703,"MEAN_MOTION_DDOT":0},{"OBJECT_NAME":"STARLINK-1830","OBJECT_ID":"2020-073BK","EPOCH":"2025-08-13T23:00:55.376064","MEAN_MOTION":15.06397014,"ECCENTRICITY":0.0001424,"INCLINATION":53.0537,"RA_OF_ASC_NODE":69.1591,"ARG_OF_PERICENTER":90.8405,"MEAN_ANOMALY":269.2747,"EPHEMERIS_TYPE":0,"CLASSIFICATION_TYPE":"U","NORAD_CAT_ID":46727,"ELEMENT_SET_NO":999,"REV_AT_EPOCH":26617,"BSTAR":0.00054883,"MEAN_MOTION_DOT":7.902e-5,"MEAN_MOTION_DDOT":0},{"OBJECT_NAME":"STARLINK-1848","OBJECT_ID":"2020-074B","EPOCH":"2025-08-14T12:00:00.999648","MEAN_MOTION":15.11877869,"ECCENTRICITY":0.0001246,"INCLINATION":53.0529,"RA_OF_ASC_NODE":176.6978,"ARG_OF_PERICENTER":119.1264,"MEAN_ANOMALY":169.0694,"EPHEMERIS_TYPE":0,"CLASSIFICATION_TYPE":"U","NORAD_CAT_ID":46740,"ELEMENT_SET_NO":999,"REV_AT_EPOCH":582,"BSTAR":0.0025007,"MEAN_MOTION_DOT":0.0004325,"MEAN_MOTION_DDOT":0},{"OBJECT_NAME":"STARLINK-1892","OBJECT_ID":"2020-074E","EPOCH":"2025-08-14T06:15:29.524032","MEAN_MOTION":15.06392382,"ECCENTRICITY":0.0001593,"INCLINATION":53.0543,"RA_OF_ASC_NODE":172.806,"ARG_OF_PERICENTER":88.4501,"MEAN_ANOMALY":271.667,"EPHEMERIS_TYPE":0,"CLASSIFICATION_TYPE":"U","NORAD_CAT_ID":46743,"ELEMENT_SET_NO":999,"REV_AT_EPOCH":26541,"BSTAR":2.5757e-5,"MEAN_MOTION_DOT":1.02e-6,"MEAN_MOTION_DDOT":0},{"OBJECT_NAME":"STARLINK-1894","OBJECT_ID":"2020-074F","EPOCH":"2025-08-14T13:41:22.864128","MEAN_MOTION":15.0639526,"ECCENTRICITY":0.0001462,"INCLINATION":53.0552,"RA_OF_ASC_NODE":171.6849,"ARG_OF_PERICENTER":88.1494,"MEAN_ANOMALY":271.9663,"EPHEMERIS_TYPE":0,"CLASSIFICATION_TYPE":"U","NORAD_CAT_ID":46744,"ELEMENT_SET_NO":999,"REV_AT_EPOCH":26545,"BSTAR":4.7588e-5,"MEAN_MOTION_DOT":4.27e-6,"MEAN_MOTION_DDOT":0},{"OBJECT_NAME":"STARLINK-1905","OBJECT_ID":"2020-074H","EPOCH":"2025-08-14T13:25:23.766240","MEAN_MOTION":15.06403865,"ECCENTRICITY":0.0001877,"INCLINATION":53.0535,"RA_OF_ASC_NODE":171.4619,"ARG_OF_PERICENTER":84.0936,"MEAN_ANOMALY":276.0267,"EPHEMERIS_TYPE":0,"CLASSIFICATION_TYPE":"U","NORAD_CAT_ID":46746,"ELEMENT_SET_NO":999,"REV_AT_EPOCH":26545,"BSTAR":0.00014599,"MEAN_MOTION_DOT":1.894e-5,"MEAN_MOTION_DDOT":0},{"OBJECT_NAME":"STARLINK-1911","OBJECT_ID":"2020-074L","EPOCH":"2025-08-14T13:20:05.529984","MEAN_MOTION":15.06411393,"ECCENTRICITY":0.000114,"INCLINATION":53.0531,"RA_OF_ASC_NODE":171.4791,"ARG_OF_PERICENTER":88.4383,"MEAN_ANOMALY":271.6737,"EPHEMERIS_TYPE":0,"CLASSIFICATION_TYPE":"U","NORAD_CAT_ID":46749,"ELEMENT_SET_NO":999,"REV_AT_EPOCH":26545,"BSTAR":0.00011527,"MEAN_MOTION_DOT":1.436e-5,"MEAN_MOTION_DDOT":0},{"OBJECT_NAME":"STARLINK-1922","OBJECT_ID":"2020-074Q","EPOCH":"2025-08-14T03:09:41.817600","MEAN_MOTION":15.06404912,"ECCENTRICITY":0.0001564,"INCLINATION":53.0542,"RA_OF_ASC_NODE":173.3854,"ARG_OF_PERICENTER":87.3864,"MEAN_ANOMALY":272.7304,"EPHEMERIS_TYPE":0,"CLASSIFICATION_TYPE":"U","NORAD_CAT_ID":46753,"ELEMENT_SET_NO":999,"REV_AT_EPOCH":26539,"BSTAR":0.00016941,"MEAN_MOTION_DOT":2.243e-5,"MEAN_MOTION_DDOT":0},{"OBJECT_NAME":"STARLINK-1928","OBJECT_ID":"2020-074V","EPOCH":"2025-08-14T14:09:52.070400","MEAN_MOTION":15.06391395,"ECCENTRICITY":0.0001571,"INCLINATION":53.0545,"RA_OF_ASC_NODE":176.3262,"ARG_OF_PERICENTER":92.948,"MEAN_ANOMALY":267.1689,"EPHEMERIS_TYPE":0,"CLASSIFICATION_TYPE":"U","NORAD_CAT_ID":46758,"ELEMENT_SET_NO":999,"REV_AT_EPOCH":26539,"BSTAR":6.4594e-5,"MEAN_MOTION_DOT":6.81e-6,"MEAN_MOTION_DDOT":0},{"OBJECT_NAME":"STARLINK-1903","OBJECT_ID":"2020-074AB","EPOCH":"2025-08-14T10:34:10.281792","MEAN_MOTION":15.61297421,"ECCENTRICITY":0.0001595,"INCLINATION":53.0246,"RA_OF_ASC_NODE":121.2777,"ARG_OF_PERICENTER":67.9907,"MEAN_ANOMALY":292.1274,"EPHEMERIS_TYPE":0,"CLASSIFICATION_TYPE":"U","NORAD_CAT_ID":46764,"ELEMENT_SET_NO":999,"REV_AT_EPOCH":26615,"BSTAR":0.00088518,"MEAN_MOTION_DOT":0.000768,"MEAN_MOTION_DDOT":0},{"OBJECT_NAME":"STARLINK-1832","OBJECT_ID":"2020-074AT","EPOCH":"2025-08-14T05:34:20.561952","MEAN_MOTION":15.06404621,"ECCENTRICITY":0.0001558,"INCLINATION":53.0531,"RA_OF_ASC_NODE":162.9361,"ARG_OF_PERICENTER":83.6877,"MEAN_ANOMALY":276.429,"EPHEMERIS_TYPE":0,"CLASSIFICATION_TYPE":"U","NORAD_CAT_ID":46780,"ELEMENT_SET_NO":999,"REV_AT_EPOCH":26554,"BSTAR":0.00012035,"MEAN_MOTION_DOT":1.512e-5,"MEAN_MOTION_DDOT":0}]
